[{"OBJECT_NAME":"NUSAT-50 (NANCY ROMAN)","OBJECT_ID":"2024-149AB","EPOCH":"2026-03-09T19:15:16.765632","MEAN_MOTION":15.29713355,"ECCENTRICITY":0.00025229,"INCLINATION":97.3817,"RA_OF_ASC_NODE":150.7693,"ARG_OF_PERICENTER":238.0469,"MEAN_ANOMALY":122.0527,"EPHEMERIS_TYPE":0,"CLASSIFICATION_TYPE":"U","NORAD_CAT_ID":60493,"ELEMENT_SET_NO":999,"REV_AT_EPOCH":8693,"BSTAR":0.0004225155,"MEAN_MOTION_DOT":0.00012094,"MEAN_MOTION_DDOT":0},{"OBJECT_NAME":"STARLINK-35557","OBJECT_ID":"2025-245D","EPOCH":"2026-03-09T21:07:55.885152","MEAN_MOTION":15.30205177,"ECCENTRICITY":9.795e-5,"INCLINATION":53.1571,"RA_OF_ASC_NODE":283.1634,"ARG_OF_PERICENTER":78.2594,"MEAN_ANOMALY":281.8517,"EPHEMERIS_TYPE":0,"CLASSIFICATION_TYPE":"U","NORAD_CAT_ID":66237,"ELEMENT_SET_NO":999,"REV_AT_EPOCH":2128,"BSTAR":0.00081218761,"MEAN_MOTION_DOT":0.00023776,"MEAN_MOTION_DDOT":0}]
