NUSAT-50 (NANCY ROMAN)  
1 60493U 24149AB  26068.80227738  .00012094  00000+0  42252-3 0  9994
2 60493  97.3817 150.7693 0002523 238.0469 122.0527 15.29713355 86930
STARLINK-35557          
1 66237U 25245D   26068.88050793  .00023776  00000+0  81219-3 0  9992
2 66237  53.1571 283.1634 0000979  78.2594 281.8517 15.30205177 21281
